OSCAR 7 (AO-7)          
1 07530U 74089B   26154.59094270 -.00000046  00000+0 -32465-6 0  9994
2 07530 101.9902 167.6956 0012419 155.4636 327.2610 12.53697887358818
PHASE 3B (AO-10)        
1 14129U 83058B   26153.31656221  .00000070  00000+0  00000+0 0  9999
2 14129  25.9022 222.0290 6015956 111.5768 320.3605  2.05871181295184
UOSAT 2 (UO-11)         
1 14781U 84021B   26154.73005966  .00001547  00000+0  16315-3 0  9995
2 14781  97.8051 120.4560 0006476 220.2530 139.8209 14.90749012255122
LUSAT (LO-19)           
1 20442U 90005G   26154.57704657  .00000142  00000+0  67480-4 0  9990
2 20442  98.8854 176.0073 0010532 243.7813 116.2288 14.34118876900447
EYESAT A (AO-27)        
1 22825U 93061C   26154.15492844  .00000132  00000+0  67000-4 0  9995
2 22825  98.6883 221.5730 0009211 136.3443 223.8470 14.30938275704997
ITAMSAT (IO-26)         
1 22826U 93061D   26154.62784732  .00000117  00000+0  60848-4 0  9994
2 22826  98.6830 221.9619 0009964 120.4008 239.8161 14.31364841705376
RADIO ROSTO (RS15)      
1 23439U 94085A   26154.90130773 -.00000059  00000+0 -45534-3 0  9994
2 23439  64.8185 324.7036 0155535   6.3318 353.9525 11.27583593294400
JAS-2 (FO-29)           
1 24278U 96046B   26154.55915222 -.00000028  00000+0  49295-5 0  9991
2 24278  98.5251   5.2975 0350636 131.7079 231.4625 13.53273610471325
TECHSAT 1B (GO-32)      
1 25397U 98043D   26154.57772251  .00000069  00000+0  49972-4 0  9993
2 25397  99.0064 146.9934 0000319 213.6137 146.5021 14.24425649449397
ISS (ZARYA)             
1 25544U 98067A   26154.70949191  .00008646  00000+0  16154-3 0  9991
2 25544  51.6330   6.8180 0007089 128.9940 231.1681 15.49585865569660
PCSAT (NO-44)           
1 26931U 01043C   26154.60928777  .00000163  00000+0  91734-4 0  9990
2 26931  67.0512 279.3895 0006115 263.9670  96.0735 14.31950876288500
SAUDISAT 1C (SO-50)     
1 27607U 02058C   26154.26409835  .00001126  00000+0  14986-3 0  9992
2 27607  64.5505 172.0623 0075519 265.0164  94.2317 14.83015002262393
CUTE-1 (CO-55)          
1 27844U 03031E   26154.54951729  .00000336  00000+0  16425-3 0  9994
2 27844  98.6736 163.2800 0008690 219.4250 140.6297 14.24327019189732
CUBESAT XI-IV (CO-57)   
1 27848U 03031J   26152.00092913  .00000288  00000+0  14576-3 0  9999
2 27848  98.6768 160.4891 0008288 248.3946 111.6350 14.23611465189071
MOZHAETS 4 (RS22)       
1 27939U 03042A   26154.97795970  .00001575  00000+0  25094-3 0  9990
2 27939  98.3464 338.9639 0010382 316.3760 146.9985 14.73445047213600
CUBESAT XI-V            
1 28895U 05043F   26152.36703129  .00001677  00000+0  27161-3 0  9991
2 28895  98.2967 307.6587 0012837 254.1655 105.8136 14.72584583 99425
CUTE-1.7+APD II (CO-65) 
1 32785U 08021C   26154.85749853  .00005176  00000+0  32833-3 0  9993
2 32785  97.8272 136.0010 0010729  77.7749 282.4680 15.09317306983187
SEEDS II (CO-66)        
1 32791U 08021J   26154.55442507  .00020146  00000+0  64842-3 0  9992
2 32791  97.7515 151.8069 0002991  42.0128 318.1342 15.32257900985206
YUBILEINY (RS30)        
1 32953U 08025A   26154.98054081  .00000025  00000+0  11266-3 0  9995
2 32953  82.5045   3.6571 0019415 343.3825  16.6616 12.43178796818054
KKS-1 (KISEKI)          
1 33499U 09002H   26154.83068138  .00001618  00000+0  20549-3 0  9992
2 33499  98.1193  77.0614 0007448 344.5884  15.5101 14.83087493934214
SWISSCUBE               
1 35932U 09051B   26154.27980436  .00001220  00000+0  25059-3 0  9992
2 35932  98.4045  61.9256 0005398 254.9932 105.0671 14.62453382887126
BEESAT-1                
1 35933U 09051C   26154.62429402  .00000980  00000+0  20663-3 0  9991
2 35933  98.3973  61.9398 0003909 272.0464  88.0289 14.61697093887202
ITUPSAT1                
1 35935U 09051E   26154.26074865  .00000935  00000+0  20304-3 0  9994
2 35935  98.4058  60.7773 0006171 286.3801  73.6720 14.60418625886705
XIWANG-1 (HOPE-1)       
1 36122U 09072B   26154.94403770 -.00000432  00000+0 -10160-2 0  9994
2 36122 100.4025 108.9882 0006805 265.2050  94.8286 13.16436578791269
O/OREOS (USA 219)       
1 37224U 10062C   26154.26618722  .00002701  00000+0  26083-3 0  9990
2 37224  71.9701 111.8704 0012358  93.6733 266.5851 14.93680061114565
JUGNU                   
1 37839U 11058B   26152.07859182  .00000456  00000+0  98509-4 0  9990
2 37839  19.9618  46.2876 0018499 258.1927 242.1590 14.13771859756742
SRMSAT                  
1 37841U 11058D   26152.32622016  .00000395  00000+0  70452-4 0  9994
2 37841  19.9701 155.4732 0011864  30.5063  85.9028 14.11572059755572
STRAND-1                
1 39090U 13009E   26154.47972605  .00000318  00000+0  12130-3 0  9993
2 39090  98.3917 335.0519 0007388 272.5775  87.4566 14.37154783695095
ZACUBE-1 (TSHEPISOSAT)  
1 39417U 13066B   26154.47592829  .00004583  00000+0  35711-3 0  9993
2 39417  97.8107 116.7386 0039888 296.2367  63.4759 15.01091454678679
GOMX-1                  
1 39430U 13066Q   26154.90747166  .00002383  00000+0  36121-3 0  9994
2 39430  97.6488 356.2085 0129956 119.7259 241.6953 14.69406845667969
